start=new Date('2022-02-21T00:00:00.000Z').valueOf();
sats=[{"BSTAR":"0.00007307900000","ELEMENT_SET_NO":"999","REV_AT_EPOCH":"12599","OBJECT_ID":"2019-074U","REF_FRAME":"TEME","TLE_LINE2":"2 44731  53.0551 341.0731 0001621  66.0943 294.0216 15.06396213125993","MEAN_MOTION":"15.06396213","TLE_LINE1":"1 44731U 19074U   22051.80915094  .00000807  00000-0  73079-4 0  9991","INCLINATION":"53.0551","MEAN_ANOMALY":"294.0216","FILE":"3310556","PERIOD":"95.592","GP_ID":"196511584","NORAD_CAT_ID":"44731","OBJECT_TYPE":"PAYLOAD","LAUNCH_DATE":"2019-11-11","CENTER_NAME":"EARTH","MEAN_MOTION_DOT":"0.00000807","SITE":"AFETR","MEAN_MOTION_DDOT":"0.0000000000000","SEMIMAJOR_AXIS":"6925.360","DECAY_DATE":null,"RA_OF_ASC_NODE":"341.0731","RCS_SIZE":"LARGE","ARG_OF_PERICENTER":"66.0943","PERIAPSIS":"546.103","APOAPSIS":"548.348","CLASSIFICATION_TYPE":"U","COUNTRY_CODE":"US","TIME_SYSTEM":"UTC","OBJECT_NAME":"STARLINK-1026","EPOCH":"2022-02-20T19:25:10.641216","EPHEMERIS_TYPE":"0","MEAN_ELEMENT_THEORY":"SGP4","ECCENTRICITY":"0.00016210"},{"SITE":"AFETR","MEAN_MOTION_DDOT":"0.0000000000000","MEAN_MOTION_DOT":"0.00002420","CENTER_NAME":"EARTH","ARG_OF_PERICENTER":"57.6526","RA_OF_ASC_NODE":"2.0295","RCS_SIZE":"LARGE","SEMIMAJOR_AXIS":"6925.328","DECAY_DATE":null,"OBJECT_NAME":"STARLINK-1027","TIME_SYSTEM":"UTC","COUNTRY_CODE":"US","CLASSIFICATION_TYPE":"U","PERIAPSIS":"546.041","APOAPSIS":"548.346","ECCENTRICITY":"0.00016640","MEAN_ELEMENT_THEORY":"SGP4","EPHEMERIS_TYPE":"0","EPOCH":"2022-02-20T14:19:59.037312","TLE_LINE2":"2 44732  53.0549   2.0295 0001664  57.6526 302.4624 15.06406633125681","REF_FRAME":"TEME","REV_AT_EPOCH":"12568","OBJECT_ID":"2019-074V","BSTAR":"0.00018129000000","ELEMENT_SET_NO":"999","FILE":"3310556","MEAN_ANOMALY":"302.4624","INCLINATION":"53.0549","MEAN_MOTION":"15.06406633","TLE_LINE1":"1 44732U 19074V   22051.59721108  .00002420  00000-0  18129-3 0  9996","GP_ID":"196509859","PERIOD":"95.592","LAUNCH_DATE":"2019-11-11","OBJECT_TYPE":"PAYLOAD","NORAD_CAT_ID":"44732"},{"OBJECT_TYPE":"PAYLOAD","NORAD_CAT_ID":"44733","LAUNCH_DATE":"2019-11-11","PERIOD":"95.592","GP_ID":"196510110","MEAN_MOTION":"15.06407554","TLE_LINE1":"1 44733U 19074W   22051.79439734  .00000650  00000-0  62507-4 0  9993","FILE":"3310556","MEAN_ANOMALY":"299.9091","INCLINATION":"53.0545","REV_AT_EPOCH":"12599","OBJECT_ID":"2019-074W","BSTAR":"0.00006250700000","ELEMENT_SET_NO":"999","TLE_LINE2":"2 44733  53.0545 341.1588 0001767  60.2073 299.9091 15.06407554125996","REF_FRAME":"TEME","EPOCH":"2022-02-20T19:03:55.930176","MEAN_ELEMENT_THEORY":"SGP4","ECCENTRICITY":"0.00017670","EPHEMERIS_TYPE":"0","PERIAPSIS":"545.967","APOAPSIS":"548.414","OBJECT_NAME":"STARLINK-1028","TIME_SYSTEM":"UTC","CLASSIFICATION_TYPE":"U","COUNTRY_CODE":"US","DECAY_DATE":null,"SEMIMAJOR_AXIS":"6925.325","ARG_OF_PERICENTER":"60.2073","RA_OF_ASC_NODE":"341.1588","RCS_SIZE":"LARGE","MEAN_MOTION_DOT":"0.00000650","CENTER_NAME":"EARTH","SITE":"AFETR","MEAN_MOTION_DDOT":"0.0000000000000"},{"EPOCH":"2022-02-20T21:00:43.159392","ECCENTRICITY":"0.00015170","MEAN_ELEMENT_THEORY":"SGP4","EPHEMERIS_TYPE":"0","APOAPSIS":"548.253","PERIAPSIS":"546.152","TIME_SYSTEM":"UTC","OBJECT_NAME":"STARLINK-1029","CLASSIFICATION_TYPE":"U","COUNTRY_CODE":"US","SEMIMAJOR_AXIS":"6925.338","DECAY_DATE":null,"ARG_OF_PERICENTER":"64.4075","RCS_SIZE":"LARGE","RA_OF_ASC_NODE":"260.7801","MEAN_MOTION_DOT":"0.00000030","CENTER_NAME":"EARTH","MEAN_MOTION_DDOT":"0.0000000000000","SITE":"AFETR","OBJECT_TYPE":"PAYLOAD","NORAD_CAT_ID":"44734","LAUNCH_DATE":"2019-11-11","PERIOD":"95.592","GP_ID":"196511363","TLE_LINE1":"1 44734U 19074X   22051.87549953  .00000030  00000-0  20905-4 0  9996","MEAN_MOTION":"15.06403510","FILE":"3310556","MEAN_ANOMALY":"295.7070","INCLINATION":"53.0557","OBJECT_ID":"2019-074X","REV_AT_EPOCH":"12710","ELEMENT_SET_NO":"999","BSTAR":"0.00002090500000","TLE_LINE2":"2 44734  53.0557 260.7801 0001517  64.4075 295.7070 15.06403510127109","REF_FRAME":"TEME"},{"OBJECT_TYPE":"PAYLOAD","NORAD_CAT_ID":"44735","LAUNCH_DATE":"2019-11-11","PERIOD":"95.592","GP_ID":"196511084","MEAN_MOTION":"15.06405328","TLE_LINE1":"1 44735U 19074Y   22051.86995223 -.00001438  00000-0 -77632-4 0  9995","FILE":"3310556","INCLINATION":"53.0541","MEAN_ANOMALY":"298.9538","REV_AT_EPOCH":"12572","OBJECT_ID":"2019-074Y","BSTAR":"-0.00007763200000","ELEMENT_SET_NO":"999","TLE_LINE2":"2 44735  53.0541   0.8075 0001876  61.1640 298.9538 15.06405328125728","REF_FRAME":"TEME","EPOCH":"2022-02-20T20:52:43.872672","ECCENTRICITY":"0.00018760","MEAN_ELEMENT_THEORY":"SGP4","EPHEMERIS_TYPE":"0","PERIAPSIS":"545.898","APOAPSIS":"548.496","TIME_SYSTEM":"UTC","OBJECT_NAME":"STARLINK-1030","CLASSIFICATION_TYPE":"U","COUNTRY_CODE":"US","SEMIMAJOR_AXIS":"6925.332","DECAY_DATE":null,"ARG_OF_PERICENTER":"61.1640","RA_OF_ASC_NODE":"0.8075","RCS_SIZE":"LARGE","MEAN_MOTION_DOT":"-0.00001438","CENTER_NAME":"EARTH","SITE":"AFETR","MEAN_MOTION_DDOT":"0.0000000000000"},{"TLE_LINE2":"2 44736  53.0565   1.0493 0001644  58.0791 302.0357 15.06383039125727","REF_FRAME":"TEME","OBJECT_ID":"2019-074Z","REV_AT_EPOCH":"12572","ELEMENT_SET_NO":"999","BSTAR":"0.00028791000000","FILE":"3310556","MEAN_ANOMALY":"302.0357","INCLINATION":"53.0565","TLE_LINE1":"1 44736U 19074Z   22051.81836418  .00004008  00000-0  28791-3 0  9996","MEAN_MOTION":"15.06383039","GP_ID":"196510360","PERIOD":"95.593","LAUNCH_DATE":"2019-11-11","OBJECT_TYPE":"PAYLOAD","NORAD_CAT_ID":"44736","MEAN_MOTION_DDOT":"0.0000000000000","SITE":"AFETR","MEAN_MOTION_DOT":"0.00004008","CENTER_NAME":"EARTH","ARG_OF_PERICENTER":"58.0791","RCS_SIZE":"LARGE","RA_OF_ASC_NODE":"1.0493","SEMIMAJOR_AXIS":"6925.401","DECAY_DATE":null,"OBJECT_NAME":"STARLINK-1031","TIME_SYSTEM":"UTC","COUNTRY_CODE":"US","CLASSIFICATION_TYPE":"U","APOAPSIS":"548.404","PERIAPSIS":"546.127","MEAN_ELEMENT_THEORY":"SGP4","ECCENTRICITY":"0.00016440","EPHEMERIS_TYPE":"0","EPOCH":"2022-02-20T19:38:26.665152"},{"APOAPSIS":"548.688","PERIAPSIS":"545.665","COUNTRY_CODE":"US","CLASSIFICATION_TYPE":"U","TIME_SYSTEM":"UTC","OBJECT_NAME":"STARLINK-1032","EPOCH":"2022-02-20T21:29:53.562048","EPHEMERIS_TYPE":"0","ECCENTRICITY":"0.00021830","MEAN_ELEMENT_THEORY":"SGP4","CENTER_NAME":"EARTH","MEAN_MOTION_DOT":"0.00003950","MEAN_MOTION_DDOT":"0.0000000000000","SITE":"AFETR","SEMIMAJOR_AXIS":"6925.312","DECAY_DATE":null,"RCS_SIZE":"LARGE","RA_OF_ASC_NODE":"0.7033","ARG_OF_PERICENTER":"61.5484","PERIOD":"95.591","GP_ID":"196510611","NORAD_CAT_ID":"44737","OBJECT_TYPE":"PAYLOAD","LAUNCH_DATE":"2019-11-11","BSTAR":"0.00028385000000","ELEMENT_SET_NO":"999","OBJECT_ID":"2019-074AA","REV_AT_EPOCH":"12573","REF_FRAME":"TEME","TLE_LINE2":"2 44737  53.0553   0.7033 0002183  61.5484 298.5725 15.06412030125731","TLE_LINE1":"1 44737U 19074AA  22051.89575882  .00003950  00000-0  28385-3 0  9994","MEAN_MOTION":"15.06412030","MEAN_ANOMALY":"298.5725","INCLINATION":"53.0553","FILE":"3310556"},{"RCS_SIZE":"LARGE","RA_OF_ASC_NODE":"0.7542","ARG_OF_PERICENTER":"63.0414","SEMIMAJOR_AXIS":"6925.337","DECAY_DATE":null,"MEAN_MOTION_DDOT":"0.0000000000000","SITE":"AFETR","CENTER_NAME":"EARTH","MEAN_MOTION_DOT":"0.00001107","EPHEMERIS_TYPE":"0","ECCENTRICITY":"0.00016620","MEAN_ELEMENT_THEORY":"SGP4","EPOCH":"2022-02-20T21:08:40.102944","CLASSIFICATION_TYPE":"U","COUNTRY_CODE":"US","OBJECT_NAME":"STARLINK-1033","TIME_SYSTEM":"UTC","APOAPSIS":"548.353","PERIAPSIS":"546.051","MEAN_ANOMALY":"297.0745","INCLINATION":"53.0570","FILE":"3310556","TLE_LINE1":"1 44738U 19074AB  22051.88101971  .00001107  00000-0  93169-4 0  9993","MEAN_MOTION":"15.06403620","REF_FRAME":"TEME","TLE_LINE2":"2 44738  53.0570   0.7542 0001662  63.0414 297.0745 15.06403620125727","ELEMENT_SET_NO":"999","BSTAR":"0.00009316900000","OBJECT_ID":"2019-074AB","REV_AT_EPOCH":"12572","LAUNCH_DATE":"2019-11-11","NORAD_CAT_ID":"44738","OBJECT_TYPE":"PAYLOAD","GP_ID":"196510863","PERIOD":"95.592"},{"GP_ID":"196484675","PERIOD":"95.372","LAUNCH_DATE":"2019-11-11","NORAD_CAT_ID":"44739","OBJECT_TYPE":"PAYLOAD","REF_FRAME":"TEME","TLE_LINE2":"2 44739  52.9993 357.1129 0001723  96.9836 263.1350 15.09870397125881","ELEMENT_SET_NO":"999","BSTAR":"0.00073144000000","REV_AT_EPOCH":"12588","OBJECT_ID":"2019-074AC","INCLINATION":"52.9993","MEAN_ANOMALY":"263.1350","FILE":"3310291","MEAN_MOTION":"15.09870397","TLE_LINE1":"1 44739U 19074AC  22051.56268115  .00011705  00000-0  73144-3 0  9998","COUNTRY_CODE":"US","CLASSIFICATION_TYPE":"U","OBJECT_NAME":"STARLINK-1034","TIME_SYSTEM":"UTC","PERIAPSIS":"535.406","APOAPSIS":"537.789","EPHEMERIS_TYPE":"0","ECCENTRICITY":"0.00017230","MEAN_ELEMENT_THEORY":"SGP4","EPOCH":"2022-02-20T13:30:15.651360","SITE":"AFETR","MEAN_MOTION_DDOT":"0.0000000000000","CENTER_NAME":"EARTH","MEAN_MOTION_DOT":"0.00011705","RA_OF_ASC_NODE":"357.1129","RCS_SIZE":"LARGE","ARG_OF_PERICENTER":"96.9836","SEMIMAJOR_AXIS":"6914.733","DECAY_DATE":null},{"PERIOD":"95.592","GP_ID":"196509860","OBJECT_TYPE":"PAYLOAD","NORAD_CAT_ID":"44740","LAUNCH_DATE":"2019-11-11","OBJECT_ID":"2019-074AD","REV_AT_EPOCH":"12572","ELEMENT_SET_NO":"999","BSTAR":"0.00027090000000","TLE_LINE2":"2 44740  53.0558   1.0073 0001805  55.0490 305.0669 15.06403840125722","REF_FRAME":"TEME","TLE_LINE1":"1 44740U 19074AD  22051.82574327  .00003756  00000-0  27090-3 0  9990","MEAN_MOTION":"15.06403840","FILE":"3310556","MEAN_ANOMALY":"305.0669","INCLINATION":"53.0558","APOAPSIS":"548.452","PERIAPSIS":"545.952","TIME_SYSTEM":"UTC","OBJECT_NAME":"STARLINK-1035","COUNTRY_CODE":"US","CLASSIFICATION_TYPE":"U","EPOCH":"2022-02-20T19:49:04.218528","MEAN_ELEMENT_THEORY":"SGP4","ECCENTRICITY":"0.00018050","EPHEMERIS_TYPE":"0","MEAN_MOTION_DOT":"0.00003756","CENTER_NAME":"EARTH","MEAN_MOTION_DDOT":"0.0000000000000","SITE":"AFETR","SEMIMAJOR_AXIS":"6925.337","DECAY_DATE":null,"ARG_OF_PERICENTER":"55.0490","RCS_SIZE":"LARGE","RA_OF_ASC_NODE":"1.0073"}];
